{"id":"3745d2c817fa0fe4f944c313a1c72c0a","type":"Feature","properties":{"name":"silas","bbox":[-2.3847199417487275,53.53224880275741,-2.338457200592387,53.55662705132286],"codes":["E00024824","E00024825","E00024828","E00024829","E00024834","E00024837","E00024815","E00024816","E00024853","E00171675","E00171676","E00171677","E00171678","E00171679","E00171680","E00025373"],"codes_compressed":["E00024824","E00024825","E00024828","E00024829","E00024834","E00024837","E01004910","E00025373"],"codes_compressed_to_lsoa":["E01004910"]},"geometry":{"coordinates":[[[-2.3750210739514444,53.554587568789884],[-2.3847199417487275,53.54933544880319],[-2.3743773437732045,53.5439806749103],[-2.3762227035761043,53.5433176557724],[-2.347169015498139,53.53224880275741],[-2.339143846126575,53.53895677114403],[-2.341547105403407,53.54186407748176],[-2.341418359371147,53.54642865561817],[-2.338457200592387,53.55525041140697],[-2.340774629181908,53.55287942655329],[-2.3414183593457665,53.55277744572993],[-2.342834565704379,53.55344031668767],[-2.343435380524568,53.55428163794875],[-2.344164941376988,53.554638557066625],[-2.3457528091128097,53.55417966050521],[-2.3475552535707607,53.554026693878484],[-2.34922895199648,53.55410317726094],[-2.3506451583563717,53.554358120870404],[-2.3531771636667713,53.555683802877894],[-2.354507539338101,53.55649958654544],[-2.3553658462227816,53.55662705132286],[-2.356309983796052,53.55632113521236],[-2.356481645173261,53.55560732235293],[-2.3563958144846424,53.5551229424822],[-2.3570395446484724,53.55387372669915],[-2.357897851533181,53.553134377536026],[-2.359399888580384,53.552649969355116],[-2.360601518219454,53.55282843617232],[-2.3614169097604645,53.553593285433834],[-2.361760232513575,53.5550209670663],[-2.361846063202165,53.55550534810402],[-2.3621035552679643,53.55596423028777],[-2.3632200765884477,53.555708867238195],[-2.364250044849058,53.55489306832462],[-2.3655804205216384,53.55351637199004],[-2.36716828825746,53.55303196818252],[-2.3691853094375404,53.553312413167674],[-2.370816092518311,53.55397527574502],[-2.3722322988561757,53.55412824255811],[-2.3750210739514444,53.554587568789884]]],"type":"Polygon"}}