{
  "type": "FeatureCollection",
  "features": [
    {
      "type": "Feature",
      "id": "economy-1",
      "geometry": {
        "type": "Point",
        "coordinates": [-2.3769, 53.5526]
      },
      "properties": {
        "id": "economy-1",
        "name": "Stoneclough Community Hub",
        "description": "Central gathering place for local initiatives and community events",
        "layer": "Economy",
        "tags": "economy,community",
        "type": "Economy",
        "population": "4300",
        "households": "1900",
        "reactions": 42
      }
    },
    {
      "type": "Feature",
      "id": "commerce-1",
      "geometry": {
        "type": "Point",
        "coordinates": [-2.3750, 53.5540]
      },
      "properties": {
        "id": "commerce-1",
        "name": "GreenRoots Cafe",
        "description": "Local cafe serving seasonal pies and community-grown produce",
        "layer": "Commerce",
        "tags": "commerce,food,local",
        "type": "Commerce",
        "reactions": 28
      }
    },
    {
      "type": "Feature",
      "id": "commerce-2",
      "geometry": {
        "type": "Point",
        "coordinates": [-2.3785, 53.5515]
      },
      "properties": {
        "id": "commerce-2",
        "name": "Stoneclough Hardware",
        "description": "Family-owned hardware store supporting local builders and DIY projects",
        "layer": "Commerce",
        "tags": "commerce,hardware,tools",
        "type": "Commerce",
        "reactions": 15
      }
    },
    {
      "type": "Feature",
      "id": "faith-1",
      "geometry": {
        "type": "Point",
        "coordinates": [-2.3790, 53.5535]
      },
      "properties": {
        "id": "faith-1",
        "name": "St. Mary's Church",
        "description": "Weekly service every Sunday at 10am. All welcome for fellowship and reflection",
        "layer": "Faith",
        "tags": "faith,worship,community",
        "type": "Faith",
        "reactions": 56
      }
    },
    {
      "type": "Feature",
      "id": "faith-2",
      "geometry": {
        "type": "Point",
        "coordinates": [-2.3755, 53.5520]
      },
      "properties": {
        "id": "faith-2",
        "name": "Community Meditation Circle",
        "description": "Weekly mindfulness and meditation sessions open to all faiths and backgrounds",
        "layer": "Faith",
        "tags": "faith,meditation,wellness",
        "type": "Faith",
        "reactions": 23
      }
    },
    {
      "type": "Feature",
      "id": "works-1",
      "geometry": {
        "type": "Point",
        "coordinates": [-2.3800, 53.5545]
      },
      "properties": {
        "id": "works-1",
        "name": "Riverbank Restoration",
        "description": "Community project to restore native plants along the riverbank. 200 shrubs planted so far!",
        "layer": "Works",
        "tags": "works,environment,restoration",
        "type": "Works",
        "reactions": 67
      }
    },
    {
      "type": "Feature",
      "id": "works-2",
      "geometry": {
        "type": "Point",
        "coordinates": [-2.3745, 53.5510]
      },
      "properties": {
        "id": "works-2",
        "name": "Community Garden Project",
        "description": "Growing vegetables and herbs for local families. Volunteers needed for Saturday work sessions",
        "layer": "Works",
        "tags": "works,garden,food",
        "type": "Works",
        "reactions": 45
      }
    },
    {
      "type": "Feature",
      "id": "circle-1",
      "geometry": {
        "type": "Point",
        "coordinates": [-2.3775, 53.5550]
      },
      "properties": {
        "id": "circle-1",
        "name": "Youth Centre Proposal",
        "description": "Proposal for a new youth centre with sports facilities and study spaces. Share your thoughts at the next meeting",
        "layer": "Circle",
        "tags": "circle,proposal,youth",
        "type": "Circle",
        "reactions": 89
      }
    },
    {
      "type": "Feature",
      "id": "circle-2",
      "geometry": {
        "type": "Point",
        "coordinates": [-2.3760, 53.5505]
      },
      "properties": {
        "id": "circle-2",
        "name": "Traffic Calming Initiative",
        "description": "Discussion on implementing traffic calming measures on Main Street for pedestrian safety",
        "layer": "Circle",
        "tags": "circle,safety,traffic",
        "type": "Circle",
        "reactions": 34
      }
    },
    {
      "type": "Feature",
      "id": "pulse-1",
      "geometry": {
        "type": "Point",
        "coordinates": [-2.3770, 53.5530]
      },
      "properties": {
        "id": "pulse-1",
        "name": "Community Health Dashboard",
        "description": "Real-time community health and wellbeing metrics",
        "layer": "Pulse",
        "tags": "pulse,data,health",
        "type": "Pulse",
        "kpi": "Health Score: 8.2/10, Active Projects: 12, Volunteer Hours: 450/month",
        "reactions": 18
      }
    },
    {
      "type": "Feature",
      "id": "mind-1",
      "geometry": {
        "type": "Point",
        "coordinates": [-2.3795, 53.5520]
      },
      "properties": {
        "id": "mind-1",
        "name": "SILAS AI Assistant",
        "description": "Ask SILAS for guidance on community initiatives, funding opportunities, and best practices",
        "layer": "Mind",
        "tags": "mind,ai,guidance",
        "type": "Mind",
        "reactions": 31
      }
    },
    {
      "type": "Feature",
      "id": "mind-2",
      "geometry": {
        "type": "Point",
        "coordinates": [-2.3740, 53.5555]
      },
      "properties": {
        "id": "mind-2",
        "name": "Community Learning Hub",
        "description": "Access learning paths for sustainable living, local governance, and community organizing",
        "layer": "Mind",
        "tags": "mind,learning,education",
        "type": "Mind",
        "reactions": 27
      }
    }
  ]
}
